{"type": "FeatureCollection", "features": [ {"type": "Feature", "properties": {"norad_id": 29999, "name": "FENGYUN 1C DEB", "group": "fengyun-1c-debris", "lat": -63.17739029467533, "lon": -16.28441217865192, "alt_km": 955.4622281503953, "timestamp": "2025-12-07T22:37:43.352789+00:00", "meta": {"OBJECT_NAME": "FENGYUN 1C DEB", "OBJECT_ID": "1999-025LZ", "EPOCH": "2025-12-07T06:06:56.727072", "MEAN_MOTION": 14.20123193, "ECCENTRICITY": 0.01893657, "INCLINATION": 98.5759, "RA_OF_ASC_NODE": 325.6842, "ARG_OF_PERICENTER": 142.3747, "MEAN_ANOMALY": 236.6929, "EPHEMERIS_TYPE": 0, "CLASSIFICATION_TYPE": "U", "NORAD_CAT_ID": 29999, "ELEMENT_SET_NO": 999, "REV_AT_EPOCH": 97646, "BSTAR": 0.00043685489, "MEAN_MOTION_DOT": 1.072e-05, "MEAN_MOTION_DDOT": 0}, "tle": {"line1": "1 29999U 99025LZ  25341.25482323  .00001072  00000+0  43685-3 0  9995", "line2": "2 29999  98.5759 325.6842 0189365 142.3747 236.6929 14.20123193976468"}}, "geometry": {"type": "Point", "coordinates": [-16.28441217865192, -63.17739029467533]}}, {"type": "Feature", "properties": {"norad_id": 30001, "name": "FENGYUN 1C DEB", "group": "fengyun-1c-debris", "lat": -72.65135274015516, "lon": 87.11554106562768, "alt_km": 798.178703776729, "timestamp": "2025-12-07T22:37:43.352800+00:00", "meta": {"OBJECT_NAME": "FENGYUN 1C DEB", "OBJECT_ID": "1999-025MA", "EPOCH": "2025-12-06T19:10:23.313216", "MEAN_MOTION": 14.38440227, "ECCENTRICITY": 0.00386708, "INCLINATION": 98.96, "RA_OF_ASC_NODE": 55.5887, "ARG_OF_PERICENTER": 116.0509, "MEAN_ANOMALY": 8.1588, "EPHEMERIS_TYPE": 0, "CLASSIFICATION_TYPE": "U", "NORAD_CAT_ID": 30001, "ELEMENT_SET_NO": 999, "REV_AT_EPOCH": 97346, "BSTAR": 0.0048009795, "MEAN_MOTION_DOT": 0.00014763, "MEAN_MOTION_DDOT": 0}, "tle": {"line1": "1 30001U 99025MA  25340.79888094  .00014763  00000+0  48010-2 0  9991", "line2": "2 30001  98.9600  55.5887 0038670 116.0509   8.1588 14.38440227973466"}}, "geometry": {"type": "Point", "coordinates": [87.11554106562768, -72.65135274015516]}}, {"type": "Feature", "properties": {"norad_id": 30003, "name": "FENGYUN 1C DEB", "group": "fengyun-1c-debris", "lat": -71.96573521658735, "lon": -12.12859359905356, "alt_km": 1044.298506988528, "timestamp": "2025-12-07T22:37:43.352811+00:00", "meta": {"OBJECT_NAME": "FENGYUN 1C DEB", "OBJECT_ID": "1999-025MC", "EPOCH": "2025-12-07T03:59:17.493216", "MEAN_MOTION": 13.85617718, "ECCENTRICITY": 0.01432353, "INCLINATION": 99.5763, "RA_OF_ASC_NODE": 315.8459, "ARG_OF_PERICENTER": 134.581, "MEAN_ANOMALY": 237.8082, "EPHEMERIS_TYPE": 0, "CLASSIFICATION_TYPE": "U", "NORAD_CAT_ID": 30003, "ELEMENT_SET_NO": 999, "REV_AT_EPOCH": 95411, "BSTAR": 0.00037429209, "MEAN_MOTION_DOT": 4.18e-06, "MEAN_MOTION_DDOT": 0}, "tle": {"line1": "1 30003U 99025MC  25341.16617469  .00000418  00000+0  37429-3 0  9996", "line2": "2 30003  99.5763 315.8459 0143235 134.5810 237.8082 13.85617718954119"}}, "geometry": {"type": "Point", "coordinates": [-12.12859359905356, -71.96573521658735]}}, {"type": "Feature", "properties": {"norad_id": 30004, "name": "FENGYUN 1C DEB", "group": "fengyun-1c-debris", "lat": -60.19795633144077, "lon": 179.36542798731128, "alt_km": 827.5461160735622, "timestamp": "2025-12-07T22:37:43.352822+00:00", "meta": {"OBJECT_NAME": "FENGYUN 1C DEB", "OBJECT_ID": "1999-025MD", "EPOCH": "2025-12-07T06:48:56.420640", "MEAN_MOTION": 14.17037186, "ECCENTRICITY": 0.00387091, "INCLINATION": 99.2232, "RA_OF_ASC_NODE": 162.202, "ARG_OF_PERICENTER": 358.2611, "MEAN_ANOMALY": 181.3442, "EPHEMERIS_TYPE": 0, "CLASSIFICATION_TYPE": "U", "NORAD_CAT_ID": 30004, "ELEMENT_SET_NO": 999, "REV_AT_EPOCH": 97229, "BSTAR": 0.0011583711, "MEAN_MOTION_DOT": 2.299e-05, "MEAN_MOTION_DDOT": 0}, "tle": {"line1": "1 30004U 99025MD  25341.28398635  .00002299  00000+0  11584-2 0  9993", "line2": "2 30004  99.2232 162.2020 0038709 358.2611 181.3442 14.17037186972292"}}, "geometry": {"type": "Point", "coordinates": [179.36542798731128, -60.19795633144077]}}, {"type": "Feature", "properties": {"norad_id": 30005, "name": "FENGYUN 1C DEB", "group": "fengyun-1c-debris", "lat": 6.401115683888299, "lon": 125.23856180173169, "alt_km": 961.4891780464322, "timestamp": "2025-12-07T22:37:43.352839+00:00", "meta": {"OBJECT_NAME": "FENGYUN 1C DEB", "OBJECT_ID": "1999-025ME", "EPOCH": "2025-12-07T04:03:09.564480", "MEAN_MOTION": 13.52198954, "ECCENTRICITY": 0.03465967, "INCLINATION": 99.3016, "RA_OF_ASC_NODE": 303.458, "ARG_OF_PERICENTER": 107.4509, "MEAN_ANOMALY": 256.4825, "EPHEMERIS_TYPE": 0, "CLASSIFICATION_TYPE": "U", "NORAD_CAT_ID": 30005, "ELEMENT_SET_NO": 999, "REV_AT_EPOCH": 92871, "BSTAR": 0.0016192135, "MEAN_MOTION_DOT": 1.519e-05, "MEAN_MOTION_DDOT": 0}, "tle": {"line1": "1 30005U 99025ME  25341.16886070  .00001519  00000+0  16192-2 0  9990", "line2": "2 30005  99.3016 303.4580 0346596 107.4509 256.4825 13.52198954928716"}}, "geometry": {"type": "Point", "coordinates": [125.23856180173169, 6.401115683888299]}}, {"type": "Feature", "properties": {"norad_id": 30007, "name": "FENGYUN 1C DEB", "group": "fengyun-1c-debris", "lat": -31.647544525585975, "lon": 57.349893159933714, "alt_km": 860.362689168418, "timestamp": "2025-12-07T22:37:43.352851+00:00", "meta": {"OBJECT_NAME": "FENGYUN 1C DEB", "OBJECT_ID": "1999-025MG", "EPOCH": "2025-12-07T05:29:40.516224", "MEAN_MOTION": 14.25345628, "ECCENTRICITY": 0.00656592, "INCLINATION": 99.178, "RA_OF_ASC_NODE": 242.3222, "ARG_OF_PERICENTER": 30.1383, "MEAN_ANOMALY": 120.6418, "EPHEMERIS_TYPE": 0, "CLASSIFICATION_TYPE": "U", "NORAD_CAT_ID": 30007, "ELEMENT_SET_NO": 999, "REV_AT_EPOCH": 97277, "BSTAR": 0.0028350483, "MEAN_MOTION_DOT": 6.791e-05, "MEAN_MOTION_DDOT": 0}, "tle": {"line1": "1 30007U 99025MG  25341.22894116  .00006791  00000+0  28350-2 0  9995", "line2": "2 30007  99.1780 242.3222 0065659  30.1383 120.6418 14.25345628972776"}}, "geometry": {"type": "Point", "coordinates": [57.349893159933714, -31.647544525585975]}}, {"type": "Feature", "properties": {"norad_id": 30008, "name": "FENGYUN 1C DEB", "group": "fengyun-1c-debris", "lat": 55.24210830169222, "lon": 131.409172571738, "alt_km": 665.1232794069128, "timestamp": "2025-12-07T22:37:43.352862+00:00", "meta": {"OBJECT_NAME": "FENGYUN 1C DEB", "OBJECT_ID": "1999-025MH", "EPOCH": "2025-12-06T20:09:50.593824", "MEAN_MOTION": 14.66095514, "ECCENTRICITY": 0.00385874, "INCLINATION": 99.3688, "RA_OF_ASC_NODE": 296.3886, "ARG_OF_PERICENTER": 210.8151, "MEAN_ANOMALY": 216.4904, "EPHEMERIS_TYPE": 0, "CLASSIFICATION_TYPE": "U", "NORAD_CAT_ID": 30008, "ELEMENT_SET_NO": 999, "REV_AT_EPOCH": 98973, "BSTAR": 0.0038501958, "MEAN_MOTION_DOT": 0.00021378, "MEAN_MOTION_DDOT": 0}, "tle": {"line1": "1 30008U 99025MH  25340.84016891  .00021378  00000+0  38502-2 0  9997", "line2": "2 30008  99.3688 296.3886 0038587 210.8151 216.4904 14.66095514989730"}}, "geometry": {"type": "Point", "coordinates": [131.409172571738, 55.24210830169222]}}, {"type": "Feature", "properties": {"norad_id": 30009, "name": "FENGYUN 1C DEB", "group": "fengyun-1c-debris", "lat": 17.267322912822497, "lon": -140.27398209103788, "alt_km": 923.4464819022878, "timestamp": "2025-12-07T22:37:43.352872+00:00", "meta": {"OBJECT_NAME": "FENGYUN 1C DEB", "OBJECT_ID": "1999-025MJ", "EPOCH": "2025-12-07T03:03:19.869120", "MEAN_MOTION": 14.04837385, "ECCENTRICITY": 0.00638079, "INCLINATION": 99.0151, "RA_OF_ASC_NODE": 36.0875, "ARG_OF_PERICENTER": 351.5159, "MEAN_ANOMALY": 8.4925, "EPHEMERIS_TYPE": 0, "CLASSIFICATION_TYPE": "U", "NORAD_CAT_ID": 30009, "ELEMENT_SET_NO": 999, "REV_AT_EPOCH": 96404, "BSTAR": 0.0010190523, "MEAN_MOTION_DOT": 1.621e-05, "MEAN_MOTION_DDOT": 0}, "tle": {"line1": "1 30009U 99025MJ  25341.12731330  .00001621  00000+0  10191-2 0  9995", "line2": "2 30009  99.0151  36.0875 0063807 351.5159   8.4925 14.04837385964045"}}, "geometry": {"type": "Point", "coordinates": [-140.27398209103788, 17.267322912822497]}}, {"type": "Feature", "properties": {"norad_id": 30010, "name": "FENGYUN 1C DEB", "group": "fengyun-1c-debris", "lat": 6.679355234456631, "lon": 172.86767508776745, "alt_km": 852.3531331879249, "timestamp": "2025-12-07T22:37:43.352883+00:00", "meta": {"OBJECT_NAME": "FENGYUN 1C DEB", "OBJECT_ID": "1999-025MK", "EPOCH": "2025-12-07T06:34:44.232384", "MEAN_MOTION": 14.24981731, "ECCENTRICITY": 0.00724935, "INCLINATION": 99.0701, "RA_OF_ASC_NODE": 173.2488, "ARG_OF_PERICENTER": 225.2071, "MEAN_ANOMALY": 312.5063, "EPHEMERIS_TYPE": 0, "CLASSIFICATION_TYPE": "U", "NORAD_CAT_ID": 30010, "ELEMENT_SET_NO": 999, "REV_AT_EPOCH": 98182, "BSTAR": 0.00025515816, "MEAN_MOTION_DOT": 5.66e-06, "MEAN_MOTION_DDOT": 0}, "tle": {"line1": "1 30010U 99025MK  25341.27412306  .00000566  00000+0  25516-3 0  9997", "line2": "2 30010  99.0701 173.2488 0072493 225.2071 312.5063 14.24981731981827"}}, "geometry": {"type": "Point", "coordinates": [172.86767508776745, 6.679355234456631]}}, {"type": "Feature", "properties": {"norad_id": 30012, "name": "FENGYUN 1C DEB", "group": "fengyun-1c-debris", "lat": -78.16851519952104, "lon": 87.90641633921351, "alt_km": 997.9980884972838, "timestamp": "2025-12-07T22:37:43.352893+00:00", "meta": {"OBJECT_NAME": "FENGYUN 1C DEB", "OBJECT_ID": "1999-025MM", "EPOCH": "2025-12-07T02:23:25.060704", "MEAN_MOTION": 13.85759404, "ECCENTRICITY": 0.01369344, "INCLINATION": 99.4649, "RA_OF_ASC_NODE": 34.2751, "ARG_OF_PERICENTER": 160.6241, "MEAN_ANOMALY": 230.538, "EPHEMERIS_TYPE": 0, "CLASSIFICATION_TYPE": "U", "NORAD_CAT_ID": 30012, "ELEMENT_SET_NO": 999, "REV_AT_EPOCH": 95470, "BSTAR": 0.00049048758, "MEAN_MOTION_DOT": 5.59e-06, "MEAN_MOTION_DDOT": 0}, "tle": {"line1": "1 30012U 99025MM  25341.09959561  .00000559  00000+0  49049-3 0  9997", "line2": "2 30012  99.4649  34.2751 0136934 160.6241 230.5380 13.85759404954709"}}, "geometry": {"type": "Point", "coordinates": [87.90641633921351, -78.16851519952104]}}]}